STARLINK-1279
1 15360C 20019A   21326.15243843 -.00000013  00000-0 -88989-6 0  3262
2 15360  53.0539 338.0571 0001661  59.9999 229.4348 15.06391114    10
